     2.100          NAVIGATION                              RINEX VERSION / TYPE
fic2rin                                 12/03/2015 00:05:07 PGM / RUN BY / DATE
                                                            END OF HEADER
27 15 12  2 22  0  0.0  .409581698477D-04  .329691829393D-11  .000000000000D+00
     .350000000000D+02 -.265312500000D+02  .438375402952D-08  .304372527151D+01
    -.129640102386D-05  .281519535929D-02  .501982867718D-05  .515370775795D+04
     .338400000000D+06  .409781932831D-07 -.848961409736D-01 -.391155481339D-07
     .969736503132D+00  .287875000000D+03  .261293882796D+00 -.810390898891D-08
     .120362156424D-09  .100000000000D+01  .187300000000D+04  .000000000000D+00
     .240000000000D+01  .000000000000D+00  .186264514923D-08  .350000000000D+02
     .331206000000D+06  .400000000000D+01
28 15 12  2 22  0  0.0  .485557597131D-03  .261479726760D-11  .000000000000D+00
     .270000000000D+02  .333125000000D+02  .366050961778D-08 -.244911004086D+01
     .169873237610D-05  .200070809806D-01  .738166272640D-05  .515370413589D+04
     .338400000000D+06  .251457095146D-06 -.105463316783D+01  .204890966415D-07
     .989319101134D+00  .249218750000D+03 -.164420329288D+01 -.742173771659D-08
     .182150444440D-09  .100000000000D+01  .187300000000D+04  .000000000000D+00
     .240000000000D+01  .000000000000D+00 -.111758708954D-07  .270000000000D+02
     .331206000000D+06  .400000000000D+01
29 15 12  2 22  0  0.0  .646812375635D-03  .147792889038D-11  .000000000000D+00
     .380000000000D+02 -.283750000000D+02  .424517682865D-08 -.662189930023D+00
    -.138208270073D-05  .893724849448D-03  .541843473911D-05  .515365332794D+04
     .338400000000D+06 -.931322574615D-08 -.264918050214D-01 -.223517417908D-07
     .975717911413D+00  .284125000000D+03 -.574307923510D+00 -.805033532878D-08
     .832177520677D-10  .100000000000D+01  .187300000000D+04  .000000000000D+00
     .240000000000D+01  .000000000000D+00 -.102445483208D-07  .380000000000D+02
     .331206000000D+06  .400000000000D+01
30 15 12  2 22  0  0.0  .654901377857D-04  .534328137292D-11  .000000000000D+00
     .260000000000D+02  .740625000000D+01  .465233664564D-08  .171645534365D+00
     .242143869400D-06  .166366482154D-02  .801309943199D-05  .515366887474D+04
     .338400000000D+06  .111758708954D-07 -.210471996809D+01 -.204890966415D-07
     .954101841189D+00  .219125000000D+03  .313851606957D+01 -.818569811004D-08
    -.357514891930D-09  .100000000000D+01  .187300000000D+04  .000000000000D+00
     .240000000000D+01  .000000000000D+00  .325962901115D-08  .260000000000D+02
     .331206000000D+06  .400000000000D+01
31 15 12  2 22  0  0.0  .292867422104D-03 -.159161572810D-11  .000000000000D+00
     .480000000000D+02  .781250000000D+01  .426660629271D-08  .227064161311D+00
     .264495611191D-06  .829755177256D-02  .763870775700D-05  .515364743233D+04
     .338400000000D+06  .726431608200D-07 -.214281098285D+01 -.633299350739D-07
     .973194677625D+00  .239968750000D+03 -.488739912539D+00 -.805426406386D-08
    -.295012288446D-09  .100000000000D+01  .187300000000D+04  .000000000000D+00
     .240000000000D+01  .000000000000D+00 -.135041773319D-07  .480000000000D+02
     .331206000000D+06  .400000000000D+01
32 15 12  2 22  0  0.0  .355932861567D-04  .119371179608D-10  .000000000000D+00
     .870000000000D+02  .287187500000D+02  .499877964781D-08  .632609265641D+00
     .153295695782D-05  .113807865418D-01  .890344381332D-05  .515364730453D+04
     .338400000000D+06  .162050127983D-06  .209301357620D+01  .257045030594D-06
     .946555723525D+00  .204312500000D+03  .187056422508D+00 -.825212944860D-08
     .194293807403D-09  .100000000000D+01  .187300000000D+04  .000000000000D+00
     .240000000000D+01  .000000000000D+00 -.325962901115D-08  .870000000000D+02
     .331206000000D+06  .400000000000D+01
21 15 12  2 21 59 44.0 -.497144646943D-03 -.227373675443D-11  .000000000000D+00
     .300000000000D+02 -.420937500000D+02  .520664544911D-08 -.761053872377D+00
    -.194087624550D-05  .227249090094D-01  .802427530289D-05  .515371338081D+04
     .338384000000D+06 -.238418579102D-06  .943849354337D+00  .361353158951D-06
     .934964217515D+00  .216375000000D+03 -.185681222460D+01 -.873964975578D-08
     .667884962947D-10  .100000000000D+01  .187300000000D+04  .000000000000D+00
     .240000000000D+01  .000000000000D+00 -.116415321827D-07  .300000000000D+02
     .333456000000D+06  .400000000000D+01
21 15 12  2 23 59 44.0 -.497160945088D-03 -.227373675443D-11  .000000000000D+00
     .380000000000D+02 -.517187500000D+02  .522057460074D-08  .289093230831D+00
    -.257976353168D-05  .227233424084D-01  .778771936893D-05  .515371026421D+04
     .345584000000D+06 -.445172190666D-06  .943786998917D+00  .633299350739D-07
     .934964476452D+00  .222343750000D+03 -.185679716824D+01 -.872036323813D-08
    -.104290058385D-09  .100000000000D+01  .187300000000D+04  .000000000000D+00
     .240000000000D+01  .000000000000D+00 -.116415321827D-07  .380000000000D+02
     .338406000000D+06  .400000000000D+01
 1 15 12  3  0  0  0.0  .576581805944D-05  .909494701773D-12  .000000000000D+00
     .460000000000D+02 -.510937500000D+02  .444054210926D-08  .193412040260D+01
    -.269711017609D-05  .487304362468D-02  .837817788124D-05  .515365753365D+04
     .345600000000D+06 -.875443220139D-07  .972244180250D+00  .596046447754D-07
     .963113097641D+00  .218156250000D+03  .494128621023D+00 -.800711924294D-08
    -.382158775590D-10  .100000000000D+01  .187300000000D+04  .000000000000D+00
     .240000000000D+01  .000000000000D+00  .512227416039D-08  .460000000000D+02
     .338406000000D+06  .400000000000D+01
 2 15 12  3  0  0  0.0  .597140751779D-03  .795807864051D-12  .000000000000D+00
     .780000000000D+02 -.745937500000D+02  .477305595980D-08  .250137669524D+01
    -.388547778130D-05  .150264528347D-01  .833719968796D-05  .515367923927D+04
     .345600000000D+06  .558793544769D-07  .930539055635D+00 -.270083546638D-06
     .941840062688D+00  .205500000000D+03 -.220698229840D+01 -.801140513575D-08
    -.607168148133D-11  .100000000000D+01  .187300000000D+04  .000000000000D+00
     .240000000000D+01  .000000000000D+00 -.204890966415D-07  .780000000000D+02
     .338406000000D+06  .400000000000D+01
 3 15 12  3  0  0  0.0  .727875158191D-05 -.454747350886D-11  .000000000000D+00
     .650000000000D+02  .226562500000D+02  .457447625958D-08 -.181815250190D+01
     .946223735809D-06  .391237437725D-03  .933930277824D-05  .515355027008D+04
     .345600000000D+06 -.335276126862D-07  .201348668251D+01  .353902578354D-07
     .958926047622D+00  .200062500000D+03 -.306380975282D+01 -.796818904991D-08
     .210365905441D-09  .100000000000D+01  .187300000000D+04  .000000000000D+00
     .240000000000D+01  .000000000000D+00  .186264514923D-08  .650000000000D+02
     .338406000000D+06  .400000000000D+01
 5 15 12  3  0  0  0.0 -.168834347278D-03  .375166564481D-11  .000000000000D+00
     .900000000000D+01  .108125000000D+02  .482984403953D-08 -.135971623956D+01
     .482425093651D-06  .456597481389D-02  .929459929466D-05  .515369007874D+04
     .345600000000D+06  .800937414169D-07  .200394970743D+01 -.465661287308D-07
     .946062290035D+00  .186687500000D+03  .477063652370D+00 -.812176687562D-08
     .265725354242D-09  .100000000000D+01  .187300000000D+04  .000000000000D+00
     .240000000000D+01  .000000000000D+00 -.107102096081D-07  .900000000000D+01
     .338406000000D+06  .400000000000D+01
 6 15 12  3  0  0  0.0  .105511397123D-03  .659383658785D-11  .000000000000D+00
     .380000000000D+02 -.646250000000D+02  .435589572626D-08 -.223154981170D+01
    -.326707959175D-05  .210182974115D-03  .864267349243D-05  .515359294510D+04
     .345600000000D+06  .298023223877D-07  .963784931065D+00  .223517417908D-07
     .962976582514D+00  .212218750000D+03  .308838565888D+01 -.797533220460D-08
    -.210723063176D-10  .100000000000D+01  .187300000000D+04  .000000000000D+00
     .240000000000D+01  .000000000000D+00  .419095158577D-08  .380000000000D+02
     .338406000000D+06  .400000000000D+01
 7 15 12  3  0  0  0.0  .478611327708D-03 -.113686837722D-11  .000000000000D+00
     .710000000000D+02  .123125000000D+02  .448482966830D-08  .126973968107D+01
     .791624188423D-06  .900854822248D-02  .788271427155D-05  .515368879509D+04
     .345600000000D+06  .316649675369D-07 -.215144224048D+01  .141561031342D-06
     .968341604892D+00  .233125000000D+03 -.268059032176D+01 -.814212486647D-08
    -.375372778640D-09  .100000000000D+01  .187300000000D+04  .000000000000D+00
     .485000000000D+01  .000000000000D+00 -.111758708954D-07  .710000000000D+02
     .338406000000D+06  .400000000000D+01
 8 15 12  3  0  0  0.0 -.147228129208D-04 -.136424205266D-11  .000000000000D+00
     .520000000000D+02 -.247812500000D+02  .461912097636D-08 -.800449121027D+00
    -.120513141155D-05  .158532604109D-02  .499933958054D-05  .515361004257D+04
     .345600000000D+06  .577419996262D-07 -.862479913865D-01  .130385160446D-07
     .961652350532D+00  .285125000000D+03 -.162072747780D+01 -.827070165078D-08
     .103932900651D-09  .100000000000D+01  .187300000000D+04  .000000000000D+00
     .240000000000D+01  .000000000000D+00  .465661287308D-08  .520000000000D+02
     .338406000000D+06  .400000000000D+01
 9 15 12  3  0  0  0.0  .207396224141D-04  .716227077646D-11  .000000000000D+00
     .370000000000D+02  .281250000000D+02  .496556397853D-08 -.233773376310D+01
     .152178108692D-05  .448551843874D-03  .626035034657D-05  .515367911911D+04
     .345600000000D+06  .000000000000D+00  .305455368288D+01  .186264514923D-08
     .956430717533D+00  .258343750000D+03  .203149373530D+01 -.825070081766D-08
    -.357157734196D-11  .100000000000D+01  .187300000000D+04  .000000000000D+00
     .240000000000D+01  .000000000000D+00  .931322574615D-09  .370000000000D+02
     .338406000000D+06  .400000000000D+01
